H1 CPF  1  DLR 2021 07 10 10  6912 technosat            
H2  1704205 6203    42829 2021 07 10 00 00 00 2021 07 17 00 00 00    60 1 1  0 0 0
H9
10 0 59406      0.000000  0      -4331473.543       4273967.299      -3419111.266
10 0 59406     60.000000  0      -4410920.174       4485836.885      -3020988.679
10 0 59406    120.000000  0      -4470061.274       4679466.035      -2610081.169
10 0 59406    180.000000  0      -4508798.060       4853848.163      -2188119.227
10 0 59406    240.000000  0      -4527126.137       5008056.475      -1756883.130
10 0 59406    300.000000  0      -4525135.153       5141249.070      -1318195.399
10 0 59406    360.000000  0      -4503007.999       5252673.723       -873913.017
10 0 59406    420.000000  0      -4461019.474       5341672.277       -425919.293
10 0 59406    480.000000  0      -4399534.389       5407684.346         23884.319
10 0 59406    540.000000  0      -4319005.455       5450250.803        473586.354
10 0 59406    600.000000  0      -4219970.670       5469016.901        921273.850
10 0 59406    660.000000  0      -4103050.174       5463734.637       1365040.885
10 0 59406    720.000000  0      -3968942.762       5434264.624       1802997.008
10 0 59406    780.000000  0      -3818421.963       5380577.454       2233275.667
10 0 59406    840.000000  0      -3652331.699       5302754.489       2654042.470
10 0 59406    900.000000  0      -3471581.645       5200988.102       3063503.279
10 0 59406    960.000000  0      -3277142.291       5075581.354       3459912.060
10 0 59406   1020.000000  0      -3070039.807       4926947.209       3841578.554
10 0 59406   1080.000000  0      -2851350.575       4755607.151       4206875.718
10 0 59406   1140.000000  0      -2622195.531       4562189.245       4554246.811
10 0 59406   1200.000000  0      -2383734.355       4347425.679       4882212.128
10 0 59406   1260.000000  0      -2137159.529       4112149.812       5189375.406
10 0 59406   1320.000000  0      -1883690.256       3857292.703       5474429.806
10 0 59406   1380.000000  0      -1624566.304       3583879.186       5736163.435
10 0 59406   1440.000000  0      -1361041.851       3293023.518       5973464.422
10 0 59406   1500.000000  0      -1094379.321       2985924.587       6185325.571
10 0 59406   1560.000000  0       -825843.259       2663860.691       6370848.459
10 0 59406   1620.000000  0       -556694.336       2328184.090       6529247.065
10 0 59406   1680.000000  0       -288183.391       1980315.218       6659851.048
10 0 59406   1740.000000  0        -21545.540       1621736.459       6762108.514
10 0 59406   1800.000000  0        242005.557       1253985.658       6835588.167
10 0 59406   1860.000000  0        501283.258        878649.435       6879980.972
10 0 59406   1920.000000  0        755133.295        497356.282       6895101.354
10 0 59406   1980.000000  0       1002438.933        111769.453       6880887.938
10 0 59406   2040.000000  0       1242125.903       -276420.366       6837403.799
10 0 59406   2100.000000  0       1473167.109       -665502.584       6764836.193
10 0 59406   2160.000000  0       1694587.069      -1053754.321       6663495.670
10 0 59406   2220.000000  0       1905466.055      -1439448.034       6533814.798
10 0 59406   2280.000000  0       2104943.964      -1820859.309       6376346.432
10 0 59406   2340.000000  0       2292223.899      -2196274.694       6191761.411
10 0 59406   2400.000000  0       2466575.412      -2563999.489       5980845.755
10 0 59406   2460.000000  0       2627337.432      -2922365.514       5744497.392
10 0 59406   2520.000000  0       2773920.781      -3269738.821       5483722.378
10 0 59406   2580.000000  0       2905810.342      -3604527.263       5199630.675
10 0 59406   2640.000000  0       3022566.899      -3925187.920       4893431.512
10 0 59406   2700.000000  0       3123828.610      -4230234.417       4566428.323
10 0 59406   2760.000000  0       3209312.091      -4518244.053       4220013.147
10 0 59406   2820.000000  0       3278813.049      -4787864.559       3855660.623
10 0 59406   2880.000000  0       3332206.548      -5037820.609       3474921.707
10 0 59406   2940.000000  0       3369446.906      -5266920.045       3079416.984
10 0 59406   3000.000000  0       3390567.164      -5474059.725       2670829.617
10 0 59406   3060.000000  0       3395678.122      -5658230.930       2250898.015
10 0 59406   3120.000000  0       3384967.006      -5818524.389       1821408.286
10 0 59406   3180.000000  0       3358695.735      -5954134.790       1384186.398
10 0 59406   3240.000000  0       3317198.877      -6064364.748        941090.231
10 0 59406   3300.000000  0       3260881.223      -6148628.334        494001.511
10 0 59406   3360.000000  0       3190215.046      -6206454.166         44817.654
10 0 59406   3420.000000  0       3105737.017      -6237487.964       -404556.635
10 0 59406   3480.000000  0       3008044.723      -6241494.341       -852217.765
10 0 59406   3540.000000  0       2897792.918      -6218357.999      -1296271.491
10 0 59406   3600.000000  0       2775689.559      -6168084.453      -1734841.010
10 0 59406   3660.000000  0       2642491.614      -6090800.233      -2166075.046
10 0 59406   3720.000000  0       2499000.680      -5986752.406      -2588155.774
10 0 59406   3780.000000  0       2346058.396      -5856307.613      -2999306.601
10 0 59406   3840.000000  0       2184541.582      -5699950.444      -3397799.656
10 0 59406   3900.000000  0       2015357.370      -5518281.258      -3781962.936
10 0 59406   3960.000000  0       1839438.275      -5312013.471      -4150187.155
10 0 59406   4020.000000  0       1657737.213      -5081970.387      -4500932.247
10 0 59406   4080.000000  0       1471222.494      -4829081.599      -4832733.539
10 0 59406   4140.000000  0       1280872.824      -4554378.933      -5144207.564
10 0 59406   4200.000000  0       1087672.324      -4258991.980      -5434057.515
10 0 59406   4260.000000  0        892605.599      -3944143.199      -5701078.284
10 0 59406   4320.000000  0        696652.865      -3611142.668      -5944161.088
10 0 59406   4380.000000  0        500785.185      -3261382.496      -6162297.656
10 0 59406   4440.000000  0        305959.824      -2896330.934      -6354584.022
10 0 59406   4500.000000  0        113115.739      -2517526.189      -6520223.895
10 0 59406   4560.000000  0        -76830.775      -2126569.975      -6658531.601
10 0 59406   4620.000000  0       -262990.263      -1725120.840      -6768934.591
10 0 59406   4680.000000  0       -444504.087      -1314887.282      -6850975.569
10 0 59406   4740.000000  0       -620548.217       -897620.636      -6904314.173
10 0 59406   4800.000000  0       -790336.817       -475107.809      -6928728.220
10 0 59406   4860.000000  0       -953125.646        -49163.874      -6924114.490
10 0 59406   4920.000000  0      -1108215.211        378375.398      -6890489.106
10 0 59406   4980.000000  0      -1254953.693        805661.146      -6827987.568
10 0 59406   5040.000000  0      -1392739.607       1230839.189      -6736864.325
10 0 59406   5100.000000  0      -1521024.199       1652057.786      -6617491.832
10 0 59406   5160.000000  0      -1639313.591       2067475.371      -6470359.322
10 0 59406   5220.000000  0      -1747170.683       2475268.420      -6296071.205
10 0 59406   5280.000000  0      -1844216.822       2873639.371      -6095344.929
10 0 59406   5340.000000  0      -1930133.121       3260824.431      -5869008.348
10 0 59406   5400.000000  0      -2004661.497       3635101.293      -5617996.753
10 0 59406   5460.000000  0      -2067605.456       3994796.840      -5343349.480
10 0 59406   5520.000000  0      -2118830.588       4338294.735      -5046206.021
10 0 59406   5580.000000  0      -2158264.752       4664042.845      -4727801.691
10 0 59406   5640.000000  0      -2185897.940       4970560.450      -4389462.834
10 0 59406   5700.000000  0      -2201781.828       5256445.201      -4032601.623
10 0 59406   5760.000000  0      -2206029.021       5520379.775      -3658710.467
10 0 59406   5820.000000  0      -2198811.958       5761138.243      -3269356.079
10 0 59406   5880.000000  0      -2180361.533       5977592.141      -2866173.163
10 0 59406   5940.000000  0      -2150965.425       6168716.170      -2450857.730
10 0 59406   6000.000000  0      -2110966.142       6333593.481      -2025160.003
10 0 59406   6060.000000  0      -2060758.766       6471420.407      -1590877.018
10 0 59406   6120.000000  0      -2000788.389       6581510.698      -1149845.051
10 0 59406   6180.000000  0      -1931547.341       6663299.300       -703931.812
10 0 59406   6240.000000  0      -1853572.125       6716345.600       -255028.443
10 0 59406   6300.000000  0      -1767440.113       6740336.212        194958.725
10 0 59406   6360.000000  0      -1673766.056       6735087.026        644116.683
10 0 59406   6420.000000  0      -1573198.343       6700544.480       1090534.283
10 0 59406   6480.000000  0      -1466415.087       6636786.183       1532310.715
10 0 59406   6540.000000  0      -1354120.055       6544020.887       1967563.897
10 0 59406   6600.000000  0      -1237038.483       6422587.854       2394438.768
10 0 59406   6660.000000  0      -1115912.832       6272955.594       2811115.451
10 0 59406   6720.000000  0       -991498.475       6095719.996       3215817.277
10 0 59406   6780.000000  0       -864559.296       5891601.820       3606818.572
10 0 59406   6840.000000  0       -735863.359       5661443.676       3982452.212
10 0 59406   6900.000000  0       -606178.575       5406206.379       4341117.075
10 0 59406   6960.000000  0       -476268.309       5126964.503       4681285.133
10 0 59406   7020.000000  0       -346887.034       4824901.367       5001507.954
10 0 59406   7080.000000  0       -218776.133       4501303.751       5300422.686
10 0 59406   7140.000000  0        -92659.870       4157556.301       5576757.870
99
